ORBCOMM FM103           
1 40091U 14040F   25016.39551291  .00001163  00000+0  28909-3 0  9993
2 40091  47.0069  14.4322 0002814 302.2279  57.8334 14.57693771559018
ORBCOMM FM114           
1 41179U 15081A   25016.83376603  .00001202  00000+0  29725-3 0  9999
2 41179  47.0028 281.5104 0002125   8.6646 351.4275 14.57763009482380
ORBCOMM FM119           
1 41180U 15081B   25016.88239131  .00001228  00000+0  30329-3 0  9990
2 41180  46.9989 190.5322 0000634 120.3538 239.7410 14.57669664483643
ORBCOMM FM105           
1 41181U 15081C   25017.15345438  .00000585  00000+0  21094-3 0  9994
2 41181  46.9999 179.6347 0001430 341.1298  18.9528 14.44972229479014
ORBCOMM FM110           
1 41182U 15081D   25016.87749572  .00001664  00000+0  39678-3 0  9996
2 41182  47.0020 280.6695 0001333 172.2593 187.8313 14.57820840482268
ORBCOMM FM118           
1 41183U 15081E   25017.13311273  .00001686  00000+0  40216-3 0  9994
2 41183  47.0043 279.8667 0001799 167.7238 192.3691 14.57748025482482
ORBCOMM FM112           
1 41184U 15081F   25016.79026517  .00001573  00000+0  37832-3 0  9995
2 41184  46.9974 190.1388 0000165  28.1679 331.9215 14.57646198483576
ORBCOMM FM113           
1 41185U 15081G   25016.76727185  .00001565  00000+0  37606-3 0  9992
2 41185  46.9991 190.5510 0000658 126.8023 233.2922 14.57729255483556
